[{"OBJECT_NAME":"STARLINK-32570","OBJECT_ID":"2024-222Z","EPOCH":"2026-03-09T12:35:32.374464","MEAN_MOTION":15.27615801,"ECCENTRICITY":0.00016527,"INCLINATION":42.9984,"RA_OF_ASC_NODE":137.1204,"ARG_OF_PERICENTER":277.9857,"MEAN_ANOMALY":82.0807,"EPHEMERIS_TYPE":0,"CLASSIFICATION_TYPE":"U","NORAD_CAT_ID":62137,"ELEMENT_SET_NO":999,"REV_AT_EPOCH":7287,"BSTAR":0.0012306627,"MEAN_MOTION_DOT":0.00033796,"MEAN_MOTION_DDOT":0},{"OBJECT_NAME":"TRANSPORTER-1 OBJECT M","OBJECT_ID":"2021-006M","EPOCH":"2026-03-09T22:05:37.843296","MEAN_MOTION":15.3227845,"ECCENTRICITY":0.00102759,"INCLINATION":97.2377,"RA_OF_ASC_NODE":116.7915,"ARG_OF_PERICENTER":187.5492,"MEAN_ANOMALY":172.5597,"EPHEMERIS_TYPE":0,"CLASSIFICATION_TYPE":"U","NORAD_CAT_ID":47424,"ELEMENT_SET_NO":999,"REV_AT_EPOCH":28439,"BSTAR":0.00023985652,"MEAN_MOTION_DOT":7.411e-5,"MEAN_MOTION_DDOT":0}]
